STARLINK-31312          
1 59152U 24044A   24136.99699375 -.00008729  00000+0 -20211-3 0  9995
2 59152  43.0020 234.9349 0001210 253.2984 106.7740 15.40676629 12378
STARLINK-31308          
1 59153U 24044B   24136.64689565 -.00002545  00000+0 -53683-4 0  9998
2 59153  42.9996 240.1622 0000167 297.0582  63.0258 15.40703181 12331
STARLINK-31270          
1 59154U 24044C   24136.75644672  .00000278  00000+0  20462-4 0  9999
2 59154  43.0015 246.1854 0001388 272.0821  87.9871 15.25907750 12274
STARLINK-31341          
1 59155U 24044D   24136.67076856  .00010733  00000+0  41949-3 0  9993
2 59155  42.9991 247.2612 0002560 203.3178 156.7557 15.25913851 12214
STARLINK-31338          
1 59156U 24044E   24136.99580000  .00000513  00000+0  29469-4 0  9999
2 59156  43.0012 245.4036 0001499 291.5833  68.4858 15.25905435 11972
STARLINK-31334          
1 59157U 24044F   24136.66626002  .00066199  00000+0  25144-2 0  9993
2 59157  42.9969 247.2295 0001515  45.0451 315.0522 15.25955469 12035
STARLINK-31297          
1 59158U 24044G   24137.01601994  .00000971  00000+0  46937-4 0  9998
2 59158  42.9984 244.6879 0000689 261.3131  98.7642 15.25905097 12301
STARLINK-31182          
1 59159U 24044H   24136.66172281  .00002447  00000+0  10336-3 0  9994
2 59159  42.9965 247.2010 0001315 295.3070  64.7644 15.25909542 12240
STARLINK-31327          
1 59160U 24044J   24137.01375635  .00128303  00000+0  48284-2 0  9996
2 59160  42.9999 244.6681 0001484 262.6267  97.4415 15.25919113 12307
STARLINK-31256          
1 59161U 24044K   24136.98449981  .00001619  00000+0  71745-4 0  9998
2 59161  43.0015 245.3285 0001111 333.5828  26.4966 15.25893662 12296
STARLINK-31272          
1 59162U 24044L   24136.65493513  .00003227  00000+0  13314-3 0  9997
2 59162  42.9996 247.1544 0001334 283.2985  76.7717 15.25911712 12214
STARLINK-31278          
1 59163U 24044M   24136.58720927  .00005680  00000+0  22674-3 0  9996
2 59163  42.9989 247.5026 0001965 229.3889 130.6791 15.25919740 12200
STARLINK-31309          
1 59164U 24044N   24136.71587625  .00000936  00000+0  45612-4 0  9995
2 59164  43.0021 246.7532 0001203 337.2834  22.7963 15.25906743 12253
STARLINK-31325          
1 59165U 24044P   24136.71362509  .00002630  00000+0  11038-3 0  9995
2 59165  42.9986 246.7317 0001366 244.9971 115.0738 15.25896763 12222
STARLINK-31342          
1 59166U 24044Q   24136.71134195  .00093471  00000+0  35293-2 0  9995
2 59166  42.9988 246.7168 0001736 248.9847 111.0818 15.25990982 12252
STARLINK-31298          
1 59167U 24044R   24136.70909354  .00029732  00000+0  11410-2 0  9996
2 59167  43.0005 246.6992 0001468 260.7926  99.2759 15.25935387 12227
STARLINK-31322          
1 59168U 24044S   24137.00435124  .00003828  00000+0  15610-3 0  9995
2 59168  42.9981 244.5907 0000846 291.1673  68.9087 15.25906071 12313
STARLINK-31329          
1 59169U 24044T   24137.00923477 -.00000354  00000+0 -36911-5 0  9991
2 59169  43.0007 244.6270 0000964 276.1312  83.9429 15.25901180 12091
STARLINK-31340          
1 59170U 24044U   24136.78242486  .00122395  00000+0  38138-2 0  9999
2 59170  42.9995 245.5257 0010496   8.5762 351.5269 15.32047663 12124
STARLINK-31344          
1 59171U 24044V   24137.00696034 -.00001387  00000+0 -43168-4 0  9998
2 59171  42.9994 244.6124 0001156 288.9564  71.1162 15.25923511 12308
STARLINK-31348          
1 59172U 24044W   24137.00225618 -.00009790  00000+0 -22765-3 0  9990
2 59172  43.0002 237.6605 0000732 256.2033 103.8742 15.40669998 12125
STARLINK-31289          
1 59173U 24044X   24136.56460011  .00002918  00000+0  12137-3 0  9994
2 59173  43.0001 247.3251 0001293 239.5162 120.5561 15.25901755 12230
STARLINK-31283          
1 59174U 24044Y   24137.25001157  .00185088  00000+0  43480-2 0  9998
2 59174  43.0003 236.4751 0001841 282.8772 273.5847 15.40584708 12434
STARLINK-31439          
1 59178U 24045A   24136.59277644 -.00000460  00000+0 -37469-5 0  9990
2 59178  42.9985 269.0224 0001474 268.4111  91.6577 15.40680681 11380
STARLINK-31410          
1 59179U 24045B   24137.08005607 -.00002447  00000+0 -51326-4 0  9998
2 59179  42.9990 265.7912 0001638 268.7989  91.2680 15.40701726 11466
STARLINK-31395          
1 59180U 24045C   24137.06885430  .00001297  00000+0  38320-4 0  9997
2 59180  42.9993 265.7052 0001221 269.9968  90.0749 15.40676972 11461
STARLINK-31486          
1 59181U 24045D   24136.71791389  .00010431  00000+0  25638-3 0  9995
2 59181  43.0009 268.2409 0001920 266.4938  93.5699 15.40728475 11403
STARLINK-31411          
1 59182U 24045E   24136.71124211 -.00020334  00000+0 -48164-3 0  9994
2 59182  42.9988 268.1886 0001904 272.6615  87.4024 15.40646898 11401
STARLINK-31347          
1 59183U 24045F   24137.05079416  .00003057  00000+0  80391-4 0  9999
2 59183  43.0041 264.6801 0002578 280.0032  80.0534 15.40709222 11491
STARLINK-31382          
1 59184U 24045G   24137.07557011  .00015581  00000+0  37918-3 0  9995
2 59184  42.9979 265.7555 0001781 270.0717  89.9935 15.40725212 11469
STARLINK-31394          
1 59185U 24045H   24137.04870522 -.00003032  00000+0 -65378-4 0  9990
2 59185  43.0013 265.5517 0001583 274.4778  85.5898 15.40686879 11467
STARLINK-31403          
1 59186U 24045J   24137.25001157  .00839861  00000+0  10757-1 0  9997
2 59186  42.9977 261.1103 0005830 345.9570 320.4173 15.55958328 11432
STARLINK-31514          
1 59187U 24045K   24137.07782766  .00014208  00000+0  34690-3 0  9994
2 59187  42.9984 265.7731 0001647 276.9676  83.0993 15.40686690 11469
STARLINK-31478          
1 59188U 24045L   24137.05990328  .00021735  00000+0  52571-3 0  9999
2 59188  42.9967 265.6351 0001105 302.7792  57.2958 15.40722508 11467
STARLINK-31498          
1 59189U 24045M   24136.66419884  .00011710  00000+0  28696-3 0  9992
2 59189  42.9988 267.8241 0001837 348.8706  11.2109 15.40721724 11402
STARLINK-31563          
1 59190U 24045N   24136.70676563  .00004077  00000+0  10478-3 0  9995
2 59190  42.9985 268.1516 0001519 265.8233  94.2449 15.40710480 11405
STARLINK-31551          
1 59191U 24045P   24136.83868365 -.00009642  00000+0 -22407-3 0  9993
2 59191  42.9979 267.4220 0002308  22.8867 337.2092 15.40666496 11427
STARLINK-31536          
1 59192U 24045Q   24137.25001157 -.00048990  00000+0 -11738-2 0  9992
2 59192  42.9991 264.1134 0001615 264.2320 245.7803 15.40679634 11494
STARLINK-31548          
1 59193U 24045R   24137.07109631 -.00009167  00000+0 -21235-3 0  9996
2 59193  43.0026 265.7194 0002100 264.6410  95.4207 15.40710253 11461
STARLINK-31542          
1 59194U 24045S   24136.71570772  .00020395  00000+0  49389-3 0  9999
2 59194  42.9993 268.2212 0001654 266.6203  93.4464 15.40717813 11403
STARLINK-31554          
1 59195U 24045T   24137.06438785 -.00016905  00000+0 -39886-3 0  9991
2 59195  42.9988 265.6669 0001200 279.6936  80.3784 15.40660599 11463
STARLINK-31558          
1 59196U 24045U   24136.71348686  .00056170  00000+0  13434-2 0  9999
2 59196  42.9982 268.2019 0001084 250.0545 110.0195 15.40669184 11416
STARLINK-31275          
1 59197U 24045V   24136.68434932 -.00000569  00000+0 -63502-5 0  9993
2 59197  42.9999 267.9764 0001921 247.3540 112.7114 15.40735821 11403
STARLINK-31590          
1 59198U 24045W   24137.05542848  .00065600  00000+0  15628-2 0  9990
2 59198  42.9991 265.5993 0001072   6.0092 354.0777 15.40726864 11462
STARLINK-31567          
1 59199U 24045X   24136.76487998  .00003532  00000+0  91766-4 0  9997
2 59199  42.9962 267.7227 0000928 215.7615 144.3179 15.40701059 11414
STARLINK-31503          
1 59200U 24045Y   24137.08450066  .00046817  00000+0  11185-2 0  9990
2 59200  42.9991 265.8192 0000833  24.5421 335.5475 15.40771342 11465
STARLINK-31603          
1 59201U 24046A   24136.87183626  .00008615  00000+0  22513-3 0  9995
2 59201  53.1569   5.1212 0001040 172.0207 188.0814 15.39616853 11181
STARLINK-31602          
1 59202U 24046B   24137.02012684  .00048314  00000+0  12069-2 0  9993
2 59202  53.1588   3.9038 0001123  86.1863 273.9270 15.39703015 11222
STARLINK-31577          
1 59203U 24046C   24137.25001157 -.00134527  00000+0 -34102-2 0  9998
2 59203  53.1581   3.0860 0000932  87.8207 336.5537 15.39643552 11262
STARLINK-31522          
1 59204U 24046D   24137.05758577  .00006673  00000+0  17627-3 0  9994
2 59204  53.1593   4.1452 0000990 106.4528 253.6585 15.39688012 11210
STARLINK-31586          
1 59205U 24046E   24137.01672346  .00061281  00000+0  13696-2 0  9997
2 59205  53.1582   3.8843 0000610  83.4175 276.6901 15.42952996 11238
STARLINK-31247          
1 59206U 24046F   24136.91667824 -.00017823  00000+0 -43725-3 0  9993
2 59206  53.1572   4.1964 0001803  69.4730 178.1216 15.39575005 11314
STARLINK-31591          
1 59207U 24046G   24137.03027787  .00018185  00000+0  41606-3 0  9992
2 59207  53.1593   3.9723 0001247  74.3818 285.7326 15.42893536 11225
STARLINK-31576          
1 59208U 24046H   24136.90542379 -.00017678  00000+0 -38944-3 0  9996
2 59208  53.1583   4.6151 0000474  46.1631 313.9414 15.42783059 11195
STARLINK-31601          
1 59209U 24046J   24137.03440822  .00025389  00000+0  64208-3 0  9990
2 59209  53.1594   3.9926 0000979 100.9508 259.1607 15.39643751 11276
STARLINK-31520          
1 59210U 24046K   24137.25001157  .00049029  00000+0  12299-2 0  9999
2 59210  53.1573   2.6722 0000940  79.4555 192.7509 15.39568953 11267
STARLINK-31496          
1 59211U 24046L   24136.93310821  .00031846  00000+0  72016-3 0  9997
2 59211  53.1570   4.0737 0001133  87.3572 272.7564 15.42901637 11421
STARLINK-31492          
1 59212U 24046M   24136.91919181  .00029674  00000+0  67179-3 0  9990
2 59212  53.1580   3.9847 0000242  65.6008 294.5023 15.42905105 11174
STARLINK-31517          
1 59213U 24046N   24136.95423194 -.00063880  00000+0 -14002-2 0  9994
2 59213  53.1602   4.2099 0000718 111.0795 249.0288 15.43617411 11203
